[{"OBJECT_NAME":"YAOGAN-31 03A","OBJECT_ID":"2021-014A","EPOCH":"2026-03-10T00:24:06.247008","MEAN_MOTION":13.45441662,"ECCENTRICITY":0.01684055,"INCLINATION":63.4026,"RA_OF_ASC_NODE":92.704,"ARG_OF_PERICENTER":0.2198,"MEAN_ANOMALY":359.8873,"EPHEMERIS_TYPE":0,"CLASSIFICATION_TYPE":"U","NORAD_CAT_ID":47691,"ELEMENT_SET_NO":999,"REV_AT_EPOCH":24743,"BSTAR":0.00052010805,"MEAN_MOTION_DOT":2.46e-6,"MEAN_MOTION_DDOT":0},{"OBJECT_NAME":"ONEWEB-0712","OBJECT_ID":"2022-166AQ","EPOCH":"2026-03-09T23:02:22.472448","MEAN_MOTION":13.16594202,"ECCENTRICITY":0.00015986,"INCLINATION":87.9008,"RA_OF_ASC_NODE":248.5085,"ARG_OF_PERICENTER":115.3565,"MEAN_ANOMALY":244.7732,"EPHEMERIS_TYPE":0,"CLASSIFICATION_TYPE":"U","NORAD_CAT_ID":54680,"ELEMENT_SET_NO":999,"REV_AT_EPOCH":15900,"BSTAR":6.9447627e-5,"MEAN_MOTION_DOT":3.9e-7,"MEAN_MOTION_DDOT":0}]
